CCSDS_OMM_VERS = 2.0
CREATION_DATE  = 
ORIGINATOR     = 

OBJECT_NAME    = STARLINK-36517
OBJECT_ID      = 2026-008K
CENTER_NAME    = EARTH
REF_FRAME      = TEME
TIME_SYSTEM    = UTC
MEAN_ELEMENT_THEORY = SGP/SGP4

EPOCH          = 2026-02-06T04:00:01.999584
MEAN_MOTION    = 15.51396893
ECCENTRICITY   = .0001212
INCLINATION    = 43.0003
RA_OF_ASC_NODE = 25.3222
ARG_OF_PERICENTER = 266.8353
MEAN_ANOMALY   = 230.8321

EPHEMERIS_TYPE = 0
CLASSIFICATION_TYPE = U
NORAD_CAT_ID   = 67454
ELEMENT_SET_NO = 999
REV_AT_EPOCH   = 474
BSTAR          = -.21666E-1
MEAN_MOTION_DOT = -.1193335E-1
MEAN_MOTION_DDOT = 0

CCSDS_OMM_VERS = 2.0
CREATION_DATE  = 
ORIGINATOR     = 

OBJECT_NAME    = STARLINK-36516
OBJECT_ID      = 2026-008L
CENTER_NAME    = EARTH
REF_FRAME      = TEME
TIME_SYSTEM    = UTC
MEAN_ELEMENT_THEORY = SGP/SGP4

EPOCH          = 2026-02-06T04:00:01.999584
MEAN_MOTION    = 15.54235154
ECCENTRICITY   = .0000804
INCLINATION    = 43.0001
RA_OF_ASC_NODE = 25.1969
ARG_OF_PERICENTER = 278.7349
MEAN_ANOMALY   = 269.9120

EPHEMERIS_TYPE = 0
CLASSIFICATION_TYPE = U
NORAD_CAT_ID   = 67455
ELEMENT_SET_NO = 999
REV_AT_EPOCH   = 473
BSTAR          = -.34768E-1
MEAN_MOTION_DOT = -.2072472E-1
MEAN_MOTION_DDOT = 0

CCSDS_OMM_VERS = 2.0
CREATION_DATE  = 
ORIGINATOR     = 

OBJECT_NAME    = STARLINK-36493
OBJECT_ID      = 2026-008M
CENTER_NAME    = EARTH
REF_FRAME      = TEME
TIME_SYSTEM    = UTC
MEAN_ELEMENT_THEORY = SGP/SGP4

EPOCH          = 2026-02-06T04:00:01.999584
MEAN_MOTION    = 15.55094844
ECCENTRICITY   = .00007
INCLINATION    = 43.0001
RA_OF_ASC_NODE = 25.1713
ARG_OF_PERICENTER = 276.0853
MEAN_ANOMALY   = 282.7293

EPHEMERIS_TYPE = 0
CLASSIFICATION_TYPE = U
NORAD_CAT_ID   = 67456
ELEMENT_SET_NO = 999
REV_AT_EPOCH   = 473
BSTAR          = -.3377E-1
MEAN_MOTION_DOT = -.2077485E-1
MEAN_MOTION_DDOT = 0

CCSDS_OMM_VERS = 2.0
CREATION_DATE  = 
ORIGINATOR     = 

OBJECT_NAME    = STARLINK-36529
OBJECT_ID      = 2026-008N
CENTER_NAME    = EARTH
REF_FRAME      = TEME
TIME_SYSTEM    = UTC
MEAN_ELEMENT_THEORY = SGP/SGP4

EPOCH          = 2026-02-06T04:00:01.999584
MEAN_MOTION    = 15.60373083
ECCENTRICITY   = .000095
INCLINATION    = 42.9999
RA_OF_ASC_NODE = 24.9868
ARG_OF_PERICENTER = 267.3827
MEAN_ANOMALY   = 6.0808

EPHEMERIS_TYPE = 0
CLASSIFICATION_TYPE = U
NORAD_CAT_ID   = 67457
ELEMENT_SET_NO = 999
REV_AT_EPOCH   = 473
BSTAR          = -.28395E-1
MEAN_MOTION_DOT = -.2128456E-1
MEAN_MOTION_DDOT = 0

CCSDS_OMM_VERS = 2.0
CREATION_DATE  = 
ORIGINATOR     = 

OBJECT_NAME    = STARLINK-36528
OBJECT_ID      = 2026-008P
CENTER_NAME    = EARTH
REF_FRAME      = TEME
TIME_SYSTEM    = UTC
MEAN_ELEMENT_THEORY = SGP/SGP4

EPOCH          = 2026-02-06T04:00:01.999584
MEAN_MOTION    = 15.66928979
ECCENTRICITY   = .0001282
INCLINATION    = 43.0001
RA_OF_ASC_NODE = 24.8289
ARG_OF_PERICENTER = 264.1527
MEAN_ANOMALY   = 72.9706

EPHEMERIS_TYPE = 0
CLASSIFICATION_TYPE = U
NORAD_CAT_ID   = 67458
ELEMENT_SET_NO = 999
REV_AT_EPOCH   = 474
BSTAR          = -.21975E-1
MEAN_MOTION_DOT = -.2097721E-1
MEAN_MOTION_DDOT = 0

CCSDS_OMM_VERS = 2.0
CREATION_DATE  = 
ORIGINATOR     = 

OBJECT_NAME    = STARLINK-36546
OBJECT_ID      = 2026-008Q
CENTER_NAME    = EARTH
REF_FRAME      = TEME
TIME_SYSTEM    = UTC
MEAN_ELEMENT_THEORY = SGP/SGP4

EPOCH          = 2026-02-06T04:00:01.999584
MEAN_MOTION    = 15.60427050
ECCENTRICITY   = .0001021
INCLINATION    = 42.9994
RA_OF_ASC_NODE = 24.9705
ARG_OF_PERICENTER = 260.0038
MEAN_ANOMALY   = 19.8443

EPHEMERIS_TYPE = 0
CLASSIFICATION_TYPE = U
NORAD_CAT_ID   = 67459
ELEMENT_SET_NO = 999
REV_AT_EPOCH   = 473
BSTAR          = -.28333E-1
MEAN_MOTION_DOT = -.2128314E-1
MEAN_MOTION_DDOT = 0

CCSDS_OMM_VERS = 2.0
CREATION_DATE  = 
ORIGINATOR     = 

OBJECT_NAME    = STARLINK-36523
OBJECT_ID      = 2026-008R
CENTER_NAME    = EARTH
REF_FRAME      = TEME
TIME_SYSTEM    = UTC
MEAN_ELEMENT_THEORY = SGP/SGP4

EPOCH          = 2026-02-06T04:00:01.999584
MEAN_MOTION    = 15.61061551
ECCENTRICITY   = .0001111
INCLINATION    = 42.9996
RA_OF_ASC_NODE = 24.9480
ARG_OF_PERICENTER = 263.2766
MEAN_ANOMALY   = 25.7210

EPHEMERIS_TYPE = 0
CLASSIFICATION_TYPE = U
NORAD_CAT_ID   = 67460
ELEMENT_SET_NO = 999
REV_AT_EPOCH   = 474
BSTAR          = -.27732E-1
MEAN_MOTION_DOT = -.2134556E-1
MEAN_MOTION_DDOT = 0

CCSDS_OMM_VERS = 2.0
CREATION_DATE  = 
ORIGINATOR     = 

OBJECT_NAME    = STARLINK-36522
OBJECT_ID      = 2026-008S
CENTER_NAME    = EARTH
REF_FRAME      = TEME
TIME_SYSTEM    = UTC
MEAN_ELEMENT_THEORY = SGP/SGP4

EPOCH          = 2026-02-06T04:00:01.999584
MEAN_MOTION    = 15.54610086
ECCENTRICITY   = .0000685
INCLINATION    = 42.9998
RA_OF_ASC_NODE = 25.1610
ARG_OF_PERICENTER = 280.9075
MEAN_ANOMALY   = 281.7211

EPHEMERIS_TYPE = 0
CLASSIFICATION_TYPE = U
NORAD_CAT_ID   = 67461
ELEMENT_SET_NO = 999
REV_AT_EPOCH   = 473
BSTAR          = -.34057E-1
MEAN_MOTION_DOT = -.2059869E-1
MEAN_MOTION_DDOT = 0

CCSDS_OMM_VERS = 2.0
CREATION_DATE  = 
ORIGINATOR     = 

OBJECT_NAME    = STARLINK-36504
OBJECT_ID      = 2026-008T
CENTER_NAME    = EARTH
REF_FRAME      = TEME
TIME_SYSTEM    = UTC
MEAN_ELEMENT_THEORY = SGP/SGP4

EPOCH          = 2026-02-04T00:12:30.539520
MEAN_MOTION    = 15.74843030
ECCENTRICITY   = .00026759
INCLINATION    = 43.0000
RA_OF_ASC_NODE = 37.8305
ARG_OF_PERICENTER = 190.7377
MEAN_ANOMALY   = 169.3435

EPHEMERIS_TYPE = 0
CLASSIFICATION_TYPE = U
NORAD_CAT_ID   = 67462
ELEMENT_SET_NO = 999
REV_AT_EPOCH   = 439
BSTAR          = .13424593E-2
MEAN_MOTION_DOT = .209146E-2
MEAN_MOTION_DDOT = 0

CCSDS_OMM_VERS = 2.0
CREATION_DATE  = 
ORIGINATOR     = 

OBJECT_NAME    = STARLINK-36505
OBJECT_ID      = 2026-008U
CENTER_NAME    = EARTH
REF_FRAME      = TEME
TIME_SYSTEM    = UTC
MEAN_ELEMENT_THEORY = SGP/SGP4

EPOCH          = 2026-02-06T04:00:01.999584
MEAN_MOTION    = 15.62692664
ECCENTRICITY   = .0001137
INCLINATION    = 42.9998
RA_OF_ASC_NODE = 24.8912
ARG_OF_PERICENTER = 260.5393
MEAN_ANOMALY   = 51.3833

EPHEMERIS_TYPE = 0
CLASSIFICATION_TYPE = U
NORAD_CAT_ID   = 67463
ELEMENT_SET_NO = 999
REV_AT_EPOCH   = 473
BSTAR          = -.26058E-1
MEAN_MOTION_DOT = -.2096692E-1
MEAN_MOTION_DDOT = 0

CCSDS_OMM_VERS = 2.0
CREATION_DATE  = 
ORIGINATOR     = 

OBJECT_NAME    = STARLINK-36421
OBJECT_ID      = 2026-008V
CENTER_NAME    = EARTH
REF_FRAME      = TEME
TIME_SYSTEM    = UTC
MEAN_ELEMENT_THEORY = SGP/SGP4

EPOCH          = 2026-02-06T04:00:01.999584
MEAN_MOTION    = 15.54493499
ECCENTRICITY   = .0000728
INCLINATION    = 42.9999
RA_OF_ASC_NODE = 25.1518
ARG_OF_PERICENTER = 279.3627
MEAN_ANOMALY   = 287.0041

EPHEMERIS_TYPE = 0
CLASSIFICATION_TYPE = U
NORAD_CAT_ID   = 67464
ELEMENT_SET_NO = 999
REV_AT_EPOCH   = 473
BSTAR          = -.34407E-1
MEAN_MOTION_DOT = -.2070787E-1
MEAN_MOTION_DDOT = 0

CCSDS_OMM_VERS = 2.0
CREATION_DATE  = 
ORIGINATOR     = 

OBJECT_NAME    = STARLINK-36437
OBJECT_ID      = 2026-008W
CENTER_NAME    = EARTH
REF_FRAME      = TEME
TIME_SYSTEM    = UTC
MEAN_ELEMENT_THEORY = SGP/SGP4

EPOCH          = 2026-02-06T04:00:01.999584
MEAN_MOTION    = 15.63078660
ECCENTRICITY   = .0001172
INCLINATION    = 42.9997
RA_OF_ASC_NODE = 24.8716
ARG_OF_PERICENTER = 264.9670
MEAN_ANOMALY   = 54.5759

EPHEMERIS_TYPE = 0
CLASSIFICATION_TYPE = U
NORAD_CAT_ID   = 67465
ELEMENT_SET_NO = 999
REV_AT_EPOCH   = 473
BSTAR          = -.25654E-1
MEAN_MOTION_DOT = -.2096147E-1
MEAN_MOTION_DDOT = 0

