STARLINK-36517          
1 67454U 26008K   26037.16668981 -.01193335  00000+0 -21666-1 0  9993
2 67454  43.0003  25.3222 0001212 266.8353 230.8321 15.51396893  4747
STARLINK-36516          
1 67455U 26008L   26037.16668981 -.02072472  00000+0 -34768-1 0  9990
2 67455  43.0001  25.1969 0000804 278.7349 269.9120 15.54235154  4739
STARLINK-36493          
1 67456U 26008M   26037.16668981 -.02077485  00000+0 -33770-1 0  9992
2 67456  43.0001  25.1713 0000700 276.0853 282.7293 15.55094844  4737
STARLINK-36529          
1 67457U 26008N   26037.16668981 -.02128456  00000+0 -28395-1 0  9995
2 67457  42.9999  24.9868 0000950 267.3827   6.0808 15.60373083  4731
STARLINK-36528          
1 67458U 26008P   26037.16668981 -.02097721  00000+0 -21975-1 0  9993
2 67458  43.0001  24.8289 0001282 264.1527  72.9706 15.66928979  4741
STARLINK-36546          
1 67459U 26008Q   26037.16668981 -.02128314  00000+0 -28333-1 0  9992
2 67459  42.9994  24.9705 0001021 260.0038  19.8443 15.60427050  4733
STARLINK-36523          
1 67460U 26008R   26037.16668981 -.02134556  00000+0 -27732-1 0  9991
2 67460  42.9996  24.9480 0001111 263.2766  25.7210 15.61061551  4740
STARLINK-36522          
1 67461U 26008S   26037.16668981 -.02059869  00000+0 -34057-1 0  9993
2 67461  42.9998  25.1610 0000685 280.9075 281.7211 15.54610086  4734
STARLINK-36504          
1 67462U 26008T   26035.00868680  .00209146  00000+0  13425-2 0  9991
2 67462  43.0000  37.8305 0002675 190.7377 169.3435 15.74843030  4396
STARLINK-36505          
1 67463U 26008U   26037.16668981 -.02096692  00000+0 -26058-1 0  9992
2 67463  42.9998  24.8912 0001137 260.5393  51.3833 15.62692664  4739
STARLINK-36421          
1 67464U 26008V   26037.16668981 -.02070787  00000+0 -34407-1 0  9997
2 67464  42.9999  25.1518 0000728 279.3627 287.0041 15.54493499  4735
STARLINK-36437          
1 67465U 26008W   26037.16668981 -.02096147  00000+0 -25654-1 0  9990
2 67465  42.9997  24.8716 0001172 264.9670  54.5759 15.63078660  4734
